SAR-LUPE 2              
1 31797U 07030A   26279.16312034  .00050842  00000+0  52333-3 0  9990
2 31797  98.1106  38.7989 0003172 148.5743 211.5704 15.64712506 74214
SAPPHIRE                
1 39088U 13009C   26279.14700524  .00000049  00000+0  32266-4 0  9995
2 39088  98.4313  96.0187 0010039 279.8177  80.1875 14.35263898712494
PRAETORIAN SDA_602      
1 65565U 25203A   26279.07341708  .00000064  00000+0  47444-4 0  9991
2 65565  81.2992 268.1227 0004907 252.9337 107.1282 13.83894523 54038
PRAETORIAN SDA_603      
1 65566U 25203B   26279.09730992  .00000158  00000+0  13202-3 0  9999
2 65566  81.2995 268.0176 0008561 249.3321 110.6918 13.83967897 54048
PRAETORIAN SDA_604      
1 65567U 25203C   26279.11705806  .00000061  00000+0  45179-4 0  9991
2 65567  81.3014 268.5877 0004420 258.7506 101.3153 13.83058049 54019
PRAETORIAN SDA_605      
1 65568U 25203D   26279.06957956  .00000069  00000+0  51871-4 0  9995
2 65568  81.2979 268.2259 0007204 249.7075 110.3307 13.83135601 54026
PRAETORIAN SDA_606      
1 65569U 25203E   26279.05281010  .00000066  00000+0  49187-4 0  9990
2 65569  81.3015 268.5072 0004993 251.0159 109.0456 13.83212879 54018
PRAETORIAN SDA_607      
1 65570U 25203F   26279.22684931  .00000153  00000+0  12790-3 0  9996
2 65570  81.2999 267.8796 0007786 248.4928 111.5399 13.83764845 54066
PRAETORIAN SDA_608      
1 65571U 25203G   26279.20571944  .00000066  00000+0  48641-4 0  9992
2 65571  81.2969 268.0281 0004904 256.3696 103.6914 13.83826290 54041
PRAETORIAN SDA_609      
1 65572U 25203H   26279.03466554  .00000202  00000+0  17031-3 0  9994
2 65572  81.3012 268.1508 0005752 249.3199 110.7342 13.84217908 54031
PRAETORIAN SDA_610      
1 65573U 25203J   26279.20504488  .00000065  00000+0  48464-4 0  9995
2 65573  81.2971 268.0315 0005636 255.7492 104.3039 13.83535573 54041
PRAETORIAN SDA_611      
1 65574U 25203K   26279.22710370  .00000299  00000+0  26137-3 0  9998
2 65574  81.2970 268.2198 0004493 261.9223  98.1423 13.83315691 54036
PRAETORIAN SDA_612      
1 65575U 25203L   26279.07823573  .00000137  00000+0  11035-3 0  9994
2 65575  81.2991 267.6714 0008171 248.8795 111.1489 13.85040341 54062
PRAETORIAN SDA_613      
1 65576U 25203M   26279.20501977  .00000065  00000+0  49148-4 0  9998
2 65576  81.2960 268.3232 0004611 249.2272 110.8390 13.82774052 54025
PRAETORIAN SDA_614      
1 65577U 25203N   26279.08817514  .00000064  00000+0  46589-4 0  9997
2 65577  81.2975 267.7670 0006065 246.5783 113.4736 13.84785902 54068
PRAETORIAN SDA_615      
1 65578U 25203P   26279.02011737  .00000166  00000+0  13785-3 0  9999
2 65578  81.2984 267.8641 0007964 247.7810 112.2502 13.84444227 54049
PRAETORIAN SDA_616      
1 65579U 25203Q   26279.22953853  .00000118  00000+0  96507-4 0  9997
2 65579  81.3025 268.4359 0004365 258.5703 101.4963 13.83277105 54031
PRAETORIAN SDA_617      
1 65580U 25203R   26279.11593321  .00000061  00000+0  45317-4 0  9997
2 65580  81.2998 268.3624 0006322 247.8143 112.2343 13.83158298 54021
PRAETORIAN SDA_618      
1 65581U 25203S   26279.07247303  .00000115  00000+0  92095-4 0  9994
2 65581  81.2984 267.7729 0008721 251.7199 108.3009 13.84230397 54056
PRAETORIAN SDA_619      
1 65582U 25203T   26279.07608185  .00000136  00000+0  11268-3 0  9999
2 65582  81.3005 268.1803 0007136 247.5840 112.4561 13.83732297 54666
PRAETORIAN SDA_620      
1 65583U 25203U   26279.07125980  .00000163  00000+0  13809-3 0  9990
2 65583  81.2993 268.2746 0006456 245.0012 115.0473 13.83213404 54022
PRAETORIAN SDA_621      
1 65584U 25203V   26279.00227420  .00000069  00000+0  51255-4 0  9999
2 65584  81.2982 268.1529 0006351 241.4450 118.6067 13.83810962 54029
PRAETORIAN SDA_601      
1 65585U 25203W   26279.09601280  .00000287  00000+0  25146-3 0  9990
2 65585  81.3000 268.4903 0004404 264.1301  95.9353 13.83176950 54011
VICTUS HAZE PUMA        
1 69646U 26142A   26279.18968890  .00003912  00000+0  17630-3 0  9995
2 69646  97.4499 175.5462 0019666  76.1864 284.1559 15.21465376 16545
