SCD 1                   
1 22490U 93009B   26280.25078935  .00000338  00000+0  41450-4 0  9996
2 22490  24.9694 235.6298 0041658 243.9382 254.7259 14.46155151777359
TECHSAT 1B (GO-32)      
1 25397U 98043D   26280.59292150  .00000029  00000+0  32700-4 0  9997
2 25397  99.0171 276.2413 0000377 210.8129 149.3027 14.24445903467335
SCD 2                   
1 25504U 98060A   26280.55636936  .00000309  00000+0  35331-4 0  9990
2 25504  24.9945  99.1577 0016579 230.3603 174.8550 14.45559219476602
DLR-TUBSAT              
1 25757U 99029B   26280.58377454  .00000032  00000+0  19729-4 0  9992
2 25757  98.6780 279.8361 0014420  13.2877 346.8695 14.52448766449567
TERRA                   
1 25994U 99068A   26280.95379722  .00000199  00000+0  49454-4 0  9991
2 25994  97.9330 325.9598 0001463 198.4037 284.1082 14.61171221426079
MAROC-TUBSAT            
1 27004U 01056D   26280.97736992 -.00000029  00000+0  19973-4 0  9999
2 27004  99.8133 100.0139 0019392 212.4317 301.4983 13.70266221241630
AQUA                    
1 27424U 02022A   26280.96111470  .00000480  00000+0  10508-3 0  9990
2 27424  98.4434 252.5830 0001005  63.7784 330.7197 14.62225675299751
SHIYAN-1 (SY-1)         
1 28220U 04012A   26280.75673613  .00010416  00000+0  29587-3 0  9992
2 28220  97.8629   6.3202 0004659 352.8134   7.3041 15.36384825228361
AURA                    
1 28376U 04026A   26280.88984675  .00000470  00000+0  10454-3 0  9998
2 28376  98.3561 238.3589 0001087  69.4864 290.6453 14.61464564182675
IRS-P5 (CARTOSAT-1)     
1 28649U 05017A   26280.61002151  .00000784  00000+0  83989-4 0  9995
2 28649  97.5274 298.5729 0002407  73.1665 286.9818 14.91275822160570
SINAH 1                 
1 28893U 05043D   26280.94803702  .00000174  00000+0  42490-4 0  9997
2 28893  98.3025  56.0412 0013190 284.3985  75.5752 14.64219558117027
RESURS-DK 1             
1 29228U 06021A   26280.72734224  .00001264  00000+0  76350-4 0  9998
2 29228  69.9325  48.1448 0003083 185.9037 174.2094 15.13577107119606
ARIRANG-2 (KOMPSAT-2)   
1 29268U 06031A   26280.96191186  .00000305  00000+0  65559-4 0  9997
2 29268  97.8335  99.9940 0015849  76.6502  77.4821 14.64714668 77984
LAPAN-TUBSAT            
1 29709U 07001A   26280.97437103  .00000833  00000+0  10169-3 0  9990
2 29709  98.1417 282.7906 0012188 171.9851 188.1561 14.86043717 67908
HAIYANG-1B              
1 31113U 07010A   26280.50545720  .00000047  00000+0  33849-4 0  9994
2 31113  98.3646 258.0700 0012507 225.5050 134.5112 14.31049387 16704
COSMO-SKYMED 1          
1 31598U 07023A   26280.93928059  .00001465  00000+0  13083-3 0  9994
2 31598  97.8800 113.7782 0001107  97.8307 262.3040 14.97510898 46663
TERRASAR-X              
1 31698U 07026A   26280.49717725 -.00000067  00000+0  25105-7 0  9995
2 31698  97.4473 286.6128 0001820  98.0054 262.1387 15.19151571 70274
WORLDVIEW-1 (WV-1)      
1 32060U 07041A   26280.92910491  .00003963  00000+0  16650-3 0  9997
2 32060  97.3838  39.0638 0003450   3.6182 356.5079 15.24008410 60053
YAOGAN-3                
1 32289U 07055A   26280.94282404  .00000630  00000+0  69176-4 0  9993
2 32289  97.8092 309.6921 0001667  80.3832 279.7575 14.91113919 22673
COSMO-SKYMED 2          
1 32376U 07059A   26280.97122105  .00000257  00000+0  38862-4 0  9991
2 32376  97.8904 102.9690 0001381  91.1899 268.9472 14.82149492 18716
RADARSAT-2              
1 32382U 07061A   26281.25071684  .00000040  00000+0  32403-4 0  9993
2 32382  98.5828 286.5897 0001154  88.3502 271.7813 14.29980883982114
CARTOSAT-2A             
1 32783U 08021A   26281.14211086 -.00000034  00000+0  21698-5 0  9994
2 32783  97.7520 325.9274 0013235 102.4035 257.8659 14.79345369995507
HUANJING 1A (HJ-1A)     
1 33320U 08041A   26281.23356970  .00000777  00000+0  98827-4 0  9996
2 33320  97.6816 262.7932 0020039 124.2299 236.0818 14.84192394975176
HUANJING 1B (HJ-1B)     
1 33321U 08041B   26281.18782174  .00001047  00000+0  13217-3 0  9990
2 33321  97.6646 265.5714 0036212 170.0605 190.1333 14.83488763975165
GEOEYE 1                
1 33331U 08042A   26281.14538134  .00000210  00000+0  48374-4 0  9997
2 33331  98.1238 353.7000 0005701  69.5778 290.6036 14.64702560966685
THEOS                   
1 33396U 08049A   26281.19085242  .00000055  00000+0  45838-4 0  9996
2 33396  98.5453 334.7316 0001205  84.3202 275.8112 14.20145152934001
COSMO-SKYMED 3          
1 33412U 08054A   26281.20036271  .00001231  00000+0  85259-4 0  9999
2 33412  97.8115 141.6029 0013818 240.5069 119.4780 15.07533490973967
YAOGAN-4                
1 33446U 08061A   26280.82320985  .00000588  00000+0  78192-4 0  9991
2 33446  97.9357 213.5317 0015586  65.9394 294.3449 14.83372431962362
GOSAT (IBUKI)           
1 33492U 09002A   26280.91177404  .00000369  00000+0  73588-4 0  9995
2 33492  98.0979  30.6300 0001502  85.6564 274.4812 14.67538191947990
DEIMOS-1                
1 35681U 09041A   26281.18233391  .00000151  00000+0  29340-4 0  9994
2 35681  97.7551  73.6257 0001763 131.0804 229.0559 14.75330214923548
DUBAISAT-1              
1 35682U 09041B   26280.95520762  .00000508  00000+0  82523-4 0  9998
2 35682  98.0214  53.0935 0011596  71.7428 288.5042 14.75278480921722
OCEANSAT-2              
1 35931U 09051A   26281.21845537  .00000376  00000+0  28275-3 0  9992
2 35931  98.2470 256.8449 0014212 279.3202  80.6357 13.99671465895143
WORLDVIEW-2 (WV-2)      
1 35946U 09055A   26281.17045541  .00000057  00000+0  33175-4 0  9996
2 35946  98.4724 353.0598 0003370 235.8554 124.2313 14.37924820891881
SMOS                    
1 36036U 09059A   26280.98201870  .00000185  00000+0  73016-4 0  9998
2 36036  98.4422 106.6824 0001061  77.0596 283.0711 14.39775660889687
YAOGAN-7                
1 36110U 09069A   26280.66980004  .00000279  00000+0  45631-4 0  9996
2 36110  97.9882 165.7373 0025458  38.8735 321.4300 14.78093082906242
TANDEM-X                
1 36605U 10030A   26280.36544190 -.00000057  00000+0  48968-6 0  9997
2 36605  97.4465 286.4833 0001753  83.2654 276.8780 15.19151395903678
CARTOSAT-2B             
1 36795U 10035A   26281.14641965 -.00000250  00000+0 -27007-4 0  9992
2 36795  97.9838 330.8961 0011321 179.2220 180.9010 14.78662232876547
YAOGAN-10               
1 36834U 10038A   26281.24538605  .00001702  00000+0  20282-3 0  9994
2 36834  97.8940 303.7434 0001677  89.9332 336.2800 14.85627024873999
COSMO-SKYMED 4          
1 37216U 10060A   26281.18641225 -.00000152  00000+0 -12546-4 0  9995
2 37216  97.8907 103.1833 0001486  79.9741 280.1640 14.82154677861300
RESOURCESAT-2           
1 37387U 11015A   26281.19393095  .00000016  00000+0  27671-4 0  9997
2 37387  98.7530 347.7869 0010214 293.2826  66.7276 14.21612694802231
HAIYANG-2A              
1 37781U 11043A   26281.17871317  .00000218  00000+0  29153-3 0  9992
2 37781  99.3465 281.0240 0003888  82.2753 277.8836 13.71122385762150
RASAT                   
1 37791U 11044D   26281.23329179  .00000324  00000+0  64552-4 0  9996
2 37791  98.0555  10.8928 0020188 190.3468 196.5916 14.68250637809779
SRMSAT                  
1 37841U 11058D   26280.61698992  .00000353  00000+0  47598-4 0  9993
2 37841  19.9712  98.9355 0011757   1.2733  62.0120 14.11596651773726
PLEIADES 1A             
1 38012U 11076F   26281.18562111 -.00000051  00000+0 -11997-5 0  9992
2 38012  98.1890 354.7113 0001571 100.1350 344.5358 14.58549000788460
ZIYUAN 1-02C (ZY 1-02C) 
1 38038U 11079A   26281.20137093  .00000026  00000+0  22640-4 0  9999
2 38038  98.3963 346.0831 0005892 339.9331 115.9088 14.38284505775452
ARIRANG-3 (KOMPSAT-3)   
1 38338U 12025B   26281.14518159  .00000278  00000+0  64290-4 0  9999
2 38338  98.1325 236.7363 0006532 114.0167 246.1719 14.62285370767852
EXACTVIEW-1 (ADS-1B)    
1 38709U 12039C   26281.14641424  .00000048  00000+0  40522-4 0  9995
2 38709  98.9905  41.1587 0010521 201.2325 158.8418 14.25010910738791
SPOT 6                  
1 38755U 12047A   26281.18538956  .00000110  00000+0  33541-4 0  9997
2 38755  98.2013 347.0998 0001044  86.6037 273.5282 14.58539460749523
PLEIADES 1B             
1 39019U 12068A   26281.20359183  .00000088  00000+0  28623-4 0  9999
2 39019  98.1860 354.6381 0001584  95.7616 264.3764 14.58572750737326
GOKTURK 2               
1 39030U 12073A   26281.18942384  .00000409  00000+0  66777-4 0  9995
2 39030  97.6768 112.9513 0001462  57.0196 303.1155 14.75628028741174
LANDSAT 8               
1 39084U 13008A   26281.19270219  .00000171  00000+0  48025-4 0  9997
2 39084  98.2192 349.9176 0001298  94.7248 265.4099 14.57109612714351
SARAL                   
1 39086U 13009A   26281.16343854  .00000042  00000+0  31375-4 0  9990
2 39086  98.5553 106.3234 0001361 353.0095   7.1070 14.32911017711786
GAOFEN-1                
1 39150U 13018A   26281.16664416  .00000488  00000+0  77197-4 0  9998
2 39150  97.8996 350.8701 0015662 261.3570  98.5865 14.76554169724918
VNREDSAT 1              
1 39160U 13021B   26281.14163111  .00000228  00000+0  51274-4 0  9997
2 39160  97.8964 330.1335 0001262  97.5076 262.6270 14.64758859716823
ARIRANG-5 (KOMPSAT-5)   
1 39227U 13042A   26281.16401311  .00000415  00000+0  33939-4 0  9999
2 39227  97.6207 106.2980 0005024  97.8700 262.3096 15.04526856720845
SKYSAT-A                
1 39418U 13066C   26281.06682015  .00001806  00000+0  10412-3 0  9993
2 39418  97.3690 326.8285 0019535 284.5930  75.3135 15.13485419705556
DUBAISAT-2              
1 39419U 13066D   26281.21491376  .00001191  00000+0  75342-4 0  9990
2 39419  97.4681 268.5240 0011391  14.6429 345.5129 15.10853155703453
GPM-CORE                
1 39574U 14009C   26281.16658873  .00004378  00000+0  96806-4 0  9999
2 39574  64.9694 289.5211 0010772 269.9161  90.0746 15.45255886715263
SENTINEL-1A             
1 39634U 14016A   26281.14419758  .00000093  00000+0  29020-4 0  9993
2 39634  98.1600 286.9011 0001407  88.2442 271.8919 14.59811090666494
KAZEOSAT 1              
1 39731U 14024A   26281.18991919 -.00000078  00000+0 -10745-4 0  9997
2 39731  98.3109 350.7590 0001415  85.0416 275.0936 14.42068772654849
ALOS-2                  
1 39766U 14029A   26281.22130193  .00000120  00000+0  23016-4 0  9995
2 39766  97.9228  16.7648 0001522  93.4675 266.6710 14.79468192668296
KAZEOSAT 2              
1 40010U 14033A   26281.18901866  .00000429  00000+0  55382-4 0  9995
2 40010  97.5344 114.8180 0007477 315.0010  45.0599 14.85578564665739
HODOYOSHI-4             
1 40011U 14033B   26281.19036483  .00001105  00000+0  12454-3 0  9995
2 40011  97.5476 100.6115 0022144 292.6495  67.2380 14.88346676665613
DEIMOS-2                
1 40013U 14033D   26281.18267513  .00001121  00000+0  11035-3 0  9998
2 40013  97.5629 151.6076 0001111  52.3978 307.7344 14.93966914654591
HODOYOSHI-3             
1 40015U 14033F   26280.94431328  .00000610  00000+0  75954-4 0  9993
2 40015  97.6554  79.5605 0032277 345.6445  14.3850 14.85589884664368
SPOT 7                  
1 40053U 14034A   26281.18533279  .00000017  00000+0  12733-4 0  9998
2 40053  98.0512 340.6939 0001157  94.0306 266.1028 14.61032728653631
SKYSAT-B                
1 40072U 14037D   26281.21992466  .00000801  00000+0  93417-4 0  9992
2 40072  98.3993 246.7314 0004197 273.4401  86.6334 14.88259592662776
WORLDVIEW-3 (WV-3)      
1 40115U 14048A   26281.15835064  .00000433  00000+0  56803-4 0  9994
2 40115  97.8469 354.3790 0000736  19.0614 341.0629 14.85164218658671
GAOFEN-2                
1 40118U 14049A   26281.21221687  .00000786  00000+0  10825-3 0  9999
2 40118  97.9997 345.2429 0006307 218.9711 141.1047 14.81022024655963
YAOGAN-21               
1 40143U 14053A   26281.19983894  .00001428  00000+0  55523-4 0  9993
2 40143  97.1376 316.6171 0009310  59.2153 301.0002 15.27563335672203
YAOGAN-22               
1 40275U 14063A   26280.96919764 -.00000044  00000+0  71617-5 0  9996
2 40275 100.7895  74.2096 0005873 299.0273  61.0249 13.15534037574643
ASNARO                  
1 40298U 14070A   26281.15739369  .00004646  00000+0  22095-3 0  9997
2 40298  97.3362 354.1660 0006345 128.7067 231.4736 15.19645654661161
YAOGAN-24               
1 40310U 14072A   26281.21409424  .00000411  00000+0  67122-4 0  9994
2 40310  98.1649  59.6056 0013089 262.3179  97.6544 14.76201679640399
CBERS 4                 
1 40336U 14079A   26281.23250988 -.00000071  00000+0 -98899-5 0  9990
2 40336  98.3412 334.4423 0001845  72.7025 287.4363 14.35517080620172
YAOGAN-26               
1 40362U 14088A   26281.14809519  .00021684  00000+0  36612-3 0  9993
2 40362  97.0719 279.0988 0003297  30.7650 329.3796 15.51641169655199
SMAP                    
1 40376U 15003A   26281.17399712  .00000234  00000+0  54358-4 0  9994
2 40376  98.1316 286.6906 0001419  88.0261 272.1104 14.63383540624148
KOMPSAT-3A              
1 40536U 15014A   26281.23312089  .00027626  00000+0  32805-3 0  9999
2 40536  97.6935 281.4152 0050682 120.3881 240.2399 15.59540038639407
SENTINEL-2A             
1 40697U 15028A   26281.15171459 -.00000116  00000+0 -27729-4 0  9994
2 40697  98.5652 354.3554 0001045  89.4185 270.7117 14.30819673589882
GAOFEN-8                
1 40701U 15030A   26281.21971297  .00011110  00000+0  20157-3 0  9999
2 40701  97.6814 121.6856 0008917 136.6810 223.5143 15.49740009628935
CARBONITE 1 (CBNT-1)    
1 40718U 15032D   26281.14245681  .00000619  00000+0  80710-4 0  9996
2 40718  97.6569  94.5604 0013032 285.9525  74.0253 14.83870699606094
YAOGAN-27               
1 40878U 15040A   26281.22324486  .00000444  00000+0  12806-2 0  9997
2 40878 100.1304 262.7616 0007845 318.5422  41.5095 13.16077089532531
GAOFEN-9 01             
1 40894U 15047A   26281.21575419  .00000579  00000+0  76943-4 0  9998
2 40894  97.6188 311.7346 0028453 127.2505 233.1311 14.83046235596948
YAOGAN-28               
1 41026U 15064A   26281.21766346  .00006217  00000+0  22503-3 0  9993
2 41026  97.3232  57.3951 0011140 144.2369 215.9619 15.28705225607943
YAOGAN-29               
1 41038U 15069A   26281.18394442  .00000684  00000+0  90516-4 0  9993
2 41038  97.9971 309.9595 0002401  52.7080 307.4352 14.83157236587373
KENT RIDGE 1            
1 41167U 15077B   26280.25350420  .00003291  00000+0  10204-3 0  9992
2 41167  14.9787 152.1810 0008189  20.6495 339.4157 15.23697576598215
GAOFEN-4                
1 41194U 15083A   26281.04620944 -.00000349  00000+0  00000+0 0  9999
2 41194   0.6426  82.9763 0003496 145.6854 270.3856  1.00270567 39662
JASON-3                 
1 41240U 16002A   26281.16777926 -.00000068  00000+0 -21398-4 0  9996
2 41240  66.0401 248.3004 0008508 267.6872  92.3172 12.87628088501796
SENTINEL-3A             
1 41335U 16011A   26281.19576817  .00000049  00000+0  38258-4 0  9990
2 41335  98.6252 346.9446 0001289 103.4631 256.6693 14.26738866554174
ZIYUAN 3-02 (ZY 3-02)   
1 41556U 16033A   26281.18999859  .00003805  00000+0  17228-3 0  9999
2 41556  97.3748 354.7275 0011476 261.7882  98.2053 15.21428149575165
CARTOSAT-2C             
1 41599U 16040A   26281.14918884  .00002626  00000+0  12760-3 0  9995
2 41599  97.4367 339.4874 0010237  99.8206 260.4185 15.19276002570866
SKYSAT-C1               
1 41601U 16040C   26280.96705073  .00006101  00000+0  16577-3 0  9994
2 41601  96.9494 306.6533 0002180  29.6610 330.4759 15.37903226575192
LAPAN-A3                
1 41603U 16040E   26281.21464153  .00002742  00000+0  86369-4 0  9990
2 41603  97.1584 273.7557 0009215 340.1996  19.8888 15.33713861572133
GAOFEN-3                
1 41727U 16049A   26281.23920737  .00000114  00000+0  47796-4 0  9995
2 41727  98.4057 287.3398 0001245 101.0170 259.1160 14.42211456534947
SKYSAT-C4               
1 41771U 16058B   26280.97059617  .00013322  00000+0  22434-3 0  9990
2 41771  96.9159 298.2560 0002740 150.9736 209.1671 15.51811118562941
SKYSAT-C5               
1 41772U 16058C   26280.67945814  .00004861  00000+0  14805-3 0  9992
2 41772  97.0371 316.1786 0001412 163.6201 196.5089 15.34426482560995
SKYSAT-C2               
1 41773U 16058D   26280.95487875  .00008515  00000+0  18677-3 0  9993
2 41773  97.0134 298.9611 0003408  36.8020 323.3462 15.44293173562441
SKYSAT-C3               
1 41774U 16058E   26281.02753153  .00020471  00000+0  28344-3 0  9995
2 41774  96.8923 307.8405 0001581 113.2173 246.9250 15.57120767563645
ALSAT-1B                
1 41785U 16059C   26281.19240730  .00000393  00000+0  69585-4 0  9992
2 41785  97.7797 285.1055 0008252 216.2537 143.8112 14.72344166537207
PATHFINDER 1            
1 41787U 16059E   26280.96439208  .00000363  00000+0  71505-4 0  9990
2 41787  97.8249 275.2019 0027704 204.1100 155.8811 14.67774404536256
SCATSAT 1               
1 41790U 16059H   26280.74107742  .00000668  00000+0  94271-4 0  9998
2 41790  98.1072 345.6087 0053207 244.4850 115.0853 14.79734563118234
GOKTURK 1A              
1 41875U 16073A   26281.18086096  .00000366  00000+0  80999-4 0  9992
2 41875  98.1511 174.2752 0001378  72.0867 288.0485 14.62761205525347
RESOURCESAT-2A          
1 41877U 16074A   26281.17518752  .00000127  00000+0  77790-4 0  9993
2 41877  98.7439 353.6976 0003219 107.6193 252.5336 14.21617809510359
CARTOSAT-2D             
1 41948U 17008A   26281.17961972  .00003035  00000+0  14703-3 0  9991
2 41948  97.4357 338.2980 0004429 194.9538 165.1566 15.19293579534737
SENTINEL-2B             
1 42063U 17013A   26281.14456811 -.00000137  00000+0 -35627-4 0  9995
2 42063  98.5697 354.2957 0001124  89.0829 271.0482 14.30818121500794
CARTOSAT-2E             
1 42767U 17036C   26281.19820862  .00002357  00000+0  11507-3 0  9991
2 42767  97.4348 339.0560 0001996 284.2077  75.8936 15.19250478515308
FORMOSAT-5              
1 42920U 17049A   26281.15237374  .00000061  00000+0  26396-4 0  9995
2 42920  98.2163 353.8968 0012716  95.8982 264.3663 14.50912950483054
SENTINEL-5P             
1 42969U 17064A   26280.83786515  .00000014  00000+0  27859-4 0  9998
2 42969  98.8021 222.2058 0000953  77.8485 282.2798 14.19534530465544
SKYSAT-C11              
1 42987U 17068A   26280.95487701  .00030300  00000+0  32050-3 0  9999
2 42987  97.4468  75.3141 0000135 155.0307 205.0958 15.64123945500836
SKYSAT-C10              
1 42988U 17068B   26281.15880745  .00006849  00000+0  19522-3 0  9998
2 42988  97.4655  59.3702 0001237  95.8045 264.3340 15.36405717499697
SKYSAT-C9               
1 42989U 17068C   26280.89882992  .00010838  00000+0  23906-3 0  9999
2 42989  97.4572  61.1777 0009000  90.3985 269.8294 15.44041057500130
SKYSAT-C8               
1 42990U 17068D   26280.95243955  .00007783  00000+0  20424-3 0  9995
2 42990  97.4672  59.4057 0001295  87.0082 273.1312 15.38927733499642
SKYSAT-C7               
1 42991U 17068E   26280.94991846  .00007651  00000+0  20100-3 0  9999
2 42991  97.4684  60.4013 0006715  68.9245 291.2717 15.38879701499709
SKYSAT-C6               
1 42992U 17068F   26281.18198459  .00005994  00000+0  18382-3 0  9993
2 42992  97.4727  60.0113 0001605 109.4372 250.7044 15.34150564499641
CARTOSAT-2F             
1 43111U 18004A   26281.16636650  .00002945  00000+0  14285-3 0  9997
2 43111  97.4671 339.6123 0001278 171.4108 188.7149 15.19283643484481
GAOFEN-1 02             
1 43259U 18031A   26280.93341339  .00000375  00000+0  61356-4 0  9998
2 43259  98.0413 343.0677 0003161  31.9120 328.2280 14.76453018459335
GAOFEN-1 03             
1 43260U 18031B   26280.97927154  .00000414  00000+0  66913-4 0  9997
2 43260  98.0398 342.9590 0003982  75.9580 284.2072 14.76467912459338
GAOFEN-1 04             
1 43262U 18031D   26280.95501251  .00000607  00000+0  94599-4 0  9998
2 43262  98.0414 343.1400 0002424  72.5141 287.6334 14.76463447459324
SENTINEL-3B             
1 43437U 18039A   26281.16889757  .00000049  00000+0  38327-4 0  9991
2 43437  98.6247 347.0671 0000904  68.0856 292.0420 14.26736857440234
GAOFEN-5 01             
1 43461U 18043A   26280.88710992  .00000187  00000+0  48611-4 0  9995
2 43461  98.4729 254.9296 0002980  89.2203 270.9338 14.60667861448147
GAOFEN-6                
1 43484U 18048A   26281.18278262 -.00000101  00000+0 -69579-5 0  9993
2 43484  98.0857 344.0307 0010998 160.8123 199.3503 14.76456550450069
GAOFEN-11 01            
1 43585U 18063A   26281.17038174  .00012605  00000+0  16753-3 0  9991
2 43585  97.1173 347.8887 0001843 262.1865  97.9182 15.58331930457927
ICESAT-2                
1 43613U 18070A   26281.17178086  .00001797  00000+0  65131-4 0  9993
2 43613  91.9992 321.4752 0005306  67.4433 292.7377 15.28259638449714
HYSIS                   
1 43719U 18096A   26280.95011312  .00000696  00000+0  10198-3 0  9990
2 43719  97.9733 346.7409 0001855 104.9486 255.1930 14.78680357424080
KAZSTSAT                
1 43783U 18099AB  26281.03648635  .00001251  00000+0  10468-3 0  9996
2 43783  97.4244 307.8234 0013733  34.8556 325.3565 15.00091265428228
SAUDISAT 5A             
1 43831U 18102A   26280.95883295  .00003905  00000+0  14108-3 0  9991
2 43831  97.2944 340.3584 0011087  94.0153 266.2355 15.29001590432901
SAUDISAT 5B             
1 43833U 18102C   26280.96062135  .00004028  00000+0  14446-3 0  9998
2 43833  97.3059 343.6346 0011804  95.8737 264.3850 15.29211552433021
GAOFEN-10R              
1 44622U 19066A   26280.95850679  .00000790  00000+0  10344-3 0  9997
2 44622  98.0636 235.4382 0006736 120.4916 239.6963 14.83201364379092
CARTOSAT-3              
1 44804U 19081A   26281.17912069  .00003117  00000+0  15052-3 0  9990
2 44804  97.4186 341.1430 0012970 117.6708 242.5845 15.19319549380628
GAOFEN-12 01            
1 44819U 19082A   26281.21892291  .00000261  00000+0  40752-4 0  9999
2 44819  97.8155 284.6480 0002130  66.1105 294.0331 14.80531133370810
CSG-1                   
1 44873U 19092A   26281.19909079  .00000240  00000+0  36754-4 0  9994
2 44873  97.8907 103.2011 0001367  86.8367 273.3002 14.82156311368210
NEMO-HD                 
1 46277U 20061F   26280.97385269  .00008932  00000+0  18130-3 0  9999
2 46277  97.1797 341.8640 0001613  67.2019 292.9402 15.46576362339402
SENTINEL-6A             
1 46984U 20086A   26280.35868267 -.00000042  00000+0  82325-4 0  9990
2 46984  66.0393 262.0672 0007887 269.3711  90.6400 12.80930093274696
CAS500-1                
1 47932U 21022A   26280.95230626  .00004403  00000+0  20675-3 0  9996
2 47932  97.3739 173.8138 0003615 245.5910 114.4949 15.20135525307895
GAOFEN-12 02            
1 48079U 21026A   26280.97176126  .00000227  00000+0  36652-4 0  9992
2 48079  98.0006 278.7438 0003797 216.6037 143.4915 14.80366975298446
PLEIADES NEO 3          
1 48268U 21034A   26280.96483170  .00000688  00000+0  94023-4 0  9997
2 48268  97.8953 354.1098 0001326  88.9342 271.2023 14.81677806294355
PLEIADES NEO 4          
1 49070U 21073E   26280.93105745  .00000965  00000+0  12921-3 0  9992
2 49070  97.8954 354.0725 0001413  87.3418 272.7957 14.81675589278066
LANDSAT 9               
1 49260U 21088A   26280.74641170  .00000179  00000+0  49906-4 0  9996
2 49260  98.2173 349.4944 0001388  88.4434 271.6924 14.57108106267392
CSG-2                   
1 51444U 22008A   26280.96278622  .00000265  00000+0  39831-4 0  9990
2 51444  97.8907 102.9596 0001429  83.7041 276.4335 14.82152875253295
GAOFEN-12 03            
1 52912U 22069A   26280.95138767  .00000297  00000+0  45718-4 0  9998
2 52912  97.8095 165.8810 0002061 101.7667 258.3776 14.80176182231298
SWOT                    
1 54754U 22173A   26280.38573289  .00000024  00000+0  17847-4 0  9999
2 54754  77.6088 243.8442 0000255 138.3692 221.7479 14.00173346194852
GAOFEN-12 04            
1 57654U 23123A   26280.91999984  .00000632  00000+0  90565-4 0  9993
2 57654  97.9079 197.2134 0003752 102.7079 257.4553 14.79894976169304
PARS 1                  
1 59065U 24039Q   26280.94256391  .00009727  00000+0  18866-3 0  9996
2 59065  97.4944 265.6792 0010962  70.7098 289.5337 15.47829432146070
RESURS-P 4              
1 59371U 24061A   26280.96869770  .00002424  00000+0  79219-4 0  9991
2 59371  97.2865 227.0071 0002689 112.4447 247.7081 15.32685244141039
LEGION 1                
1 59625U 24081A   26280.88902279  .00002449  00000+0  12619-3 0  9995
2 59625  97.4937 357.5370 0008593 346.2753  13.8246 15.17305258134620
LEGION 2                
1 59626U 24081B   26280.92034769  .00002256  00000+0  11655-3 0  9996
2 59626  97.4939 357.6630 0009998 309.6173  50.4177 15.17287768134638
ALOS-4 (DAICHI-4)       
1 60182U 24123A   26280.90246775  .00000930  00000+0  13137-3 0  9996
2 60182  97.9224  16.4550 0001457  95.9865 264.1513 14.79467263122547
LEGION 3                
1 60452U 24146A   26280.88903556  .00002468  00000+0  14136-3 0  9993
2 60452  45.0004 146.3089 0006810 130.3170 229.8305 15.15604796119120
LEGION 4                
1 60453U 24146B   26280.95367578  .00002983  00000+0  16766-3 0  9993
2 60453  45.0010 237.8183 0008801 224.9302 135.0865 15.15667639117984
SENTINEL-2C             
1 60989U 24157A   26280.75997879  .00000049  00000+0  35385-4 0  9990
2 60989  98.5701 353.9234 0001114  81.9458 278.1852 14.30817819109088
IONOSFERA-M 1           
1 61735U 24199A   26280.92555339  .00000021  00000+0  28965-4 0  9992
2 61735  98.6972 152.8077 0001484 126.6789 233.4525 14.22771336143739
IONOSFERA-M 2           
1 61736U 24199B   26280.88926625  .00000022  00000+0  29421-4 0  9997
2 61736  98.6971 152.6816 0001453  46.2669 313.8629 14.22774685146852
PRSC-EO1                
1 62725U 25012A   26280.93814870  .00004927  00000+0  24793-3 0  9999
2 62725  97.4129 351.1177 0003729 224.5615 135.5320 15.17666686 95293
BIOMASS                 
1 63772U 25090A   26280.47158907  .00000167  00000+0  37919-4 0  9996
2 63772  98.0751 106.1810 0001334  85.1384 274.9973 14.67535567 77154
GOSAT-GW (IBUKI GW)     
1 64694U 25141A   26280.89415215  .00000467  00000+0  90702-4 0  9993
2 64694  98.0628 216.3984 0001418  84.1875 275.9492 14.67551715 68378
IONOSFERA-M 3           
1 64876U 25155A   26280.93752091  .00000039  00000+0  37418-4 0  9991
2 64876  98.6181 240.0775 0000280 202.5609 157.5557 14.21502353 62420
IONOSFERA-M 4           
1 64877U 25155B   26280.90177704  .00000033  00000+0  34703-4 0  9999
2 64877  98.6185 239.9590 0000574 110.7937 249.3302 14.21504938 62415
MICROCARB               
1 64899U 25156A   26280.92523166  .00000303  00000+0  55079-4 0  9992
2 64899  98.0079 356.4191 0016401 263.4325  96.5015 14.72862947 64564
CO3D 3                  
1 64900U 25156B   26280.81041868  .00002596  00000+0  12303-3 0  9995
2 64900  97.4346 357.8844 0001598 108.5974 251.5435 15.20197250 66649
CO3D 4                  
1 64901U 25156C   26280.61309367  .00002462  00000+0  11681-3 0  9995
2 64901  97.4347 357.6899 0000363 229.0301 131.0903 15.20199162 66614
CO3D 2                  
1 64902U 25156D   26280.90887407  .00002814  00000+0  13309-3 0  9994
2 64902  97.4350 357.8803 0001569  82.7701 277.3713 15.20199435 66653
CO3D 1                  
1 64903U 25156E   26280.90902196  .00002793  00000+0  13211-3 0  9996
2 64903  97.4348 357.8805 0001323  97.5175 262.6211 15.20202039 66655
PRSC-S1                 
1 65055U 25164A   26280.74167795  .00003406  00000+0  23386-3 0  9990
2 65055  41.1318  13.5261 0006020  28.6547 331.4597 15.07198724 65411
SENTINEL-6B             
1 66514U 25264A   26280.98364234 -.00000045  00000+0  68915-4 0  9990
2 66514  66.0394 260.8952 0007836 268.3413  91.6704 12.80930013 41611
CAS500-3                
1 66655U 25274F   26280.75905502  .00000770  00000+0  88960-4 0  9997
2 66655  97.7448 206.2339 0003319 205.6399 154.4654 14.88361324 46890
CSG-3                   
1 67304U 26001A   26280.46913156  .00000160  00000+0  26684-4 0  9998
2 67304  97.8910 102.4801 0001396  90.2955 269.8419 14.82152035 41095
PRSC-E03                
1 68835U 26092A   26280.97051520  .00001702  00000+0  11826-3 0  9996
2 68835  37.9996 144.3640 0004482 211.9014 148.1477 15.07134926 24975
CAS500-2                
1 69013U 26100AK  26281.15404795  .00003756  00000+0  17515-3 0  9994
2 69013  97.3736 176.6658 0009091 352.8600   7.2504 15.20440375 23978
