HST                     
1 20580U 90037B   26280.69404208  .00004543  00000+0  13615-3 0  9999
2 20580  28.4733  30.9626 0001517 337.3513  22.7016 15.31852805805839
POLAR                   
1 23802U 96013A   26279.72274735  .00000022  00000+0  00000+0 0  9999
2 23802  80.0081 225.7074 6585650 205.2585  97.6829  1.29845635146301
SWAS                    
1 25560U 98071A   26280.57081629  .00001521  00000+0  99365-4 0  9993
2 25560  69.8931 297.5694 0002601  65.6097 294.5339 15.10194995514234
CXO                     
1 25867U 99040B   26283.08973022  .00000686  00000+0  00000+0 0  9990
2 25867  57.7685 113.6354 7656956 309.1885   0.2461  0.37810264 17753
XMM-NEWTON              
1 25989U 99066A   26281.04631812  .00000040  00000+0  00000+0 0  9999
2 25989  63.8943 281.5251 4643424  62.8847   0.1915  0.50127699 23576
TERRA                   
1 25994U 99068A   26280.95379722  .00000199  00000+0  49454-4 0  9991
2 25994  97.9330 325.9598 0001463 198.4037 284.1082 14.61171221426079
TIMED                   
1 26998U 01055B   26280.66837923  .00000801  00000+0  75910-4 0  9991
2 26998  74.0699   8.5001 0001152 225.8767 134.2323 14.95495021347632
CORIOLIS                
1 27640U 03001A   26280.58772396  .00000073  00000+0  54907-4 0  9996
2 27640  98.7171 285.7806 0012966 247.8269 112.1532 14.19970698230174
SORCE                   
1 27651U 03004A   26280.22723119  .00001861  00000+0  14215-3 0  9994
2 27651  39.9923 342.1895 0016451 139.0254 221.1779 15.04198313288777
MOST                    
1 27843U 03031D   26280.56369094  .00000039  00000+0  38131-4 0  9992
2 27843  98.7083 286.7416 0008803 290.5427  69.4805 14.21341160206679
SCISAT 1                
1 27858U 03036A   26280.52306039  .00000300  00000+0  42870-4 0  9995
2 27858  73.9292 308.1246 0007879 335.2748  24.8049 14.81554041248083
SWIFT                   
1 28485U 04047A   26280.56072189  .00228744  00000+0  73284-3 0  9991
2 28485  20.5512  28.5789 0004464  98.4087 261.6869 15.89081926204617
HINODE (SOLAR-B)        
1 29479U 06041A   26280.59814622  .00000287  00000+0  57692-4 0  9996
2 29479  98.0539 295.0979 0016143 293.1533  66.7971 14.68738243 71379
SHIJIAN-6 02A (SJ-6 02A)
1 29505U 06046A   26280.91443694  .00002246  00000+0  11397-3 0  9992
2 29505  97.6261 322.8456 0004582 104.3262 255.8480 15.17986321 89362
SHIJIAN-6 02B (SJ-6 02B)
1 29506U 06046B   26280.90723718  .00001242  00000+0  10050-3 0  9990
2 29506  97.6967 309.1501 0015028  55.8147 304.4500 15.01517102 87658
FGRST (GLAST)           
1 33053U 08029A   26280.96331434  .00002585  00000+0  88908-4 0  9990
2 33053  25.5812 141.1131 0007688 216.2024 143.7995 15.24448517 12919
SDO                     
1 36395U 10005A   26277.11916721 -.00000067  00000+0  00000+0 0  9996
2 36395  34.8784  84.6864 0001797  82.1576 147.3231  1.00273214 61155
CRYOSAT 2               
1 36508U 10013A   26281.17938647  .00000072  00000+0  17116-4 0  9999
2 36508  92.0242 304.7182 0002152  92.1395 268.0058 14.51905637874477
X-SAT                   
1 37389U 11015C   26281.18495725  .00000466  00000+0  21571-3 0  9992
2 37389  98.3668 252.9066 0014516  16.1322 344.0318 14.25234605803774
GCOM-W1 (SHIZUKU)       
1 38337U 12025A   26280.85777868  .00000281  00000+0  72448-4 0  9997
2 38337  98.2106 219.7383 0001607  75.3697 352.4987 14.57114545765447
NUSTAR                  
1 38358U 12031A   26281.25002315  .00007597  00000+0  40478-3 0  9994
2 38358   6.0260 265.4276 0007574 345.8048 136.5180 15.09713910  1304
NEOSSAT                 
1 39089U 13009D   26280.96090102  .00000115  00000+0  54579-4 0  9997
2 39089  98.4226  98.3632 0009831 270.6334  89.3725 14.35859881712926
BRITE-AUSTRIA           
1 39091U 13009F   26280.97292337  .00000107  00000+0  50834-4 0  9996
2 39091  98.4048  97.6711 0009008 262.8162  97.2001 14.36577663713246
IRIS                    
1 39197U 13033A   26281.02125186  .00000655  00000+0  80904-4 0  9993
2 39197  97.9248 119.9327 0023390 312.1311  47.7916 14.86068246717139
HISAKI (SPRINT-A)       
1 39253U 13049A   26280.51618599  .00000112  00000+0  60296-4 0  9991
2 39253  29.7219   8.9147 0136491 207.6032 151.7239 13.55552635646674
CASSIOPE                
1 39265U 13055A   26281.17345809  .00036411 -57017-6  35476-3 0  9995
2 39265  80.9090 288.6842 0263760  39.5494 322.4659 15.33100643684936
STSAT-3                 
1 39422U 13066G   26281.22226862  .00001375  00000+0  10590-3 0  9998
2 39422  97.6352 249.4013 0010601  21.8092 338.3583 15.03263152701185
SWARM B                 
1 39451U 13067A   26281.17220910  .00002049  00000+0  71206-4 0  9994
2 39451  87.7401 307.9951 0002844  81.1649 278.9922 15.29133585700505
SWARM A                 
1 39452U 13067B   26281.21253587  .00008261  00000+0  14084-3 0  9998
2 39452  87.3377  14.2594 0003019  99.5835 260.5768 15.51161286723762
SWARM C                 
1 39453U 13067C   26281.21244380  .00008116  00000+0  13836-3 0  9993
2 39453  87.3379  12.8431 0003020  99.5270 260.6332 15.51159719723726
BRITE-CA1 (TORONTO)     
1 40020U 14033L   26281.15868050  .00000515  00000+0  85029-4 0  9997
2 40020  97.9893  48.1101 0077035 275.3300  83.9122 14.72836555658842
OCO 2                   
1 40059U 14035A   26281.11656030  .00000227  00000+0  60495-4 0  9990
2 40059  98.2106 220.7258 0001333  68.9826 291.1515 14.57102882652499
BRITE-PL2 (HEWELIUSZ)   
1 40119U 14049B   26280.90187286  .00000763  00000+0  75323-4 0  9991
2 40119  97.9191  33.8530 0015198  95.1939 265.1016 14.94913050658281
MMS 1                   
1 40482U 15011A   26281.25002315 -.00001199  00000+0  00000+0 0  9992
2 40482  72.9723 347.5108 8246659 169.8143 312.0583  0.28144399  1362
MMS 2                   
1 40483U 15011B   26281.25002315 -.00001199  00000+0  00000+0 0  9993
2 40483  72.9769 347.5096 8249494 169.8152 312.0331  0.28144402  1376
MMS 3                   
1 40484U 15011C   26281.25002315 -.00001200  00000+0  00000+0 0  9997
2 40484  72.9761 347.5217 8247865 169.8241 312.0074  0.28144516  1351
MMS 4                   
1 40485U 15011D   26281.25002315 -.00001199  00000+0  00000+0 0  9995
2 40485  72.9691 347.5058 8247991 169.8340 312.0005  0.28144538  1377
ASTROSAT                
1 40930U 15052A   26280.22988274  .00001386  00000+0  86558-4 0  9992
2 40930   5.9970  68.7329 0008271 201.0934 158.8853 14.82671780596484
DAMPE                   
1 41173U 15078A   26281.18058388  .00000999  00000+0  35863-4 0  9992
2 41173  97.4604 287.2494 0013145  41.2361 318.9871 15.31020267601837
PISAT                   
1 41784U 16059B   26280.93629718  .00000534  00000+0  98362-4 0  9991
2 41784  97.8263 276.6026 0028302 202.7140 157.2816 14.69151593536290
HXMT (HUIYAN)           
1 42758U 17034A   26281.17719656  .00003379  00000+0  16677-3 0  9993
2 42758  43.0141 273.4790 0030634 144.4665 215.8231 15.19290081514849
FLYING LAPTOP           
1 42831U 17042G   26281.21473329  .00001506  00000+0  11997-3 0  9993
2 42831  97.5023  72.7554 0019046  96.1086 264.2309 15.01669058503416
ZHANGHENG 1-01 (CSES-1) 
1 43194U 18015C   26281.17676144  .00005273  00000+0  24173-3 0  9997
2 43194  97.6966  89.1599 0013131 241.1684 118.8233 15.20841192481813
SALSAT                  
1 46495U 20068K   26280.53266489  .00004808  00000+0  16249-3 0  9999
2 46495  97.8884 290.5843 0007544 267.3753  92.6623 15.31166702332545
IXPE                    
1 49954U 21121A   26281.00002315  .00011579  00000+0  61564-3 0  9995
2 49954   0.2285 183.5345 0006820 349.6555 328.5811 15.11128668  5846
SMILE                   
1 69123U 26109A   26277.06159474  .00000563  00000+0  00000+0 0  9991
2 69123  69.9925 206.1975 8131820 285.3382   5.8935  0.47516858   461
