DMSP 5D-3 F16 (USA 172) 
1 28054U 03048A   26280.92937797  .00000035  00000+0  41966-4 0  9992
2 28054  98.9839 305.4778 0007043 179.6269 297.9367 14.14493650185425
METEOSAT-9 (MSG-2)      
1 28912U 05049B   26279.94433897  .00000114  00000+0  00000+0 0  9997
2 28912   9.6115  53.0343 0001500   0.4894 347.7294  1.00272256  8116
DMSP 5D-3 F17 (USA 191) 
1 29522U 06050A   26280.95363074  .00000098  00000+0  72858-4 0  9996
2 29522  98.7428 285.2432 0011221  93.7639 266.4818 14.15013485 28377
FENGYUN 3A              
1 32958U 08026A   26280.82017337  .00000034  00000+0  36480-4 0  9993
2 32958  98.6972 219.5806 0008991 156.9318 203.2264 14.19590487951384
EWS-G3 (GOES 14)        
1 35491U 09033A   26281.10973637  .00000021  00000+0  00000+0 0  9993
2 35491   1.9758  81.4330 0002161 116.6822 284.4261  1.00071065  7722
DMSP 5D-3 F18 (USA 210) 
1 35951U 09057A   26281.21361449  .00000136  00000+0  93743-4 0  9992
2 35951  98.9186 261.8134 0010080 293.4962  66.5152 14.14949371875575
EWS-G2 (GOES 15)        
1 36411U 10008A   26281.10912970  .00000008  00000+0  00000+0 0  9998
2 36411   1.5832  81.7292 0004702  92.8223 304.8317  1.00273045 60772
FENGYUN 3B              
1 37214U 10059A   26281.24429498 -.00000260  00000+0 -11122-3 0  9992
2 37214  98.9510 327.6703 0021269 224.4318 215.2254 14.14859646823410
SUOMI NPP               
1 37849U 11061A   26281.18794638  .00000032  00000+0  36097-4 0  9998
2 37849  98.8045 221.3279 0002172  31.4023 328.7282 14.19537218774470
METEOSAT-10 (MSG-3)     
1 38552U 12035B   26281.09664963 -.00000016  00000+0  00000+0 0  9992
2 38552   4.9357  60.3799 0000831 142.9134 208.4210  1.00275106 51985
METOP-B                 
1 38771U 12049A   26281.16620054  .00000050  00000+0  42718-4 0  9995
2 38771  98.6376 330.3410 0002781  43.4054 316.7342 14.21463193729311
INSAT-3D                
1 39216U 13038B   26280.97968088 -.00000352  00000+0  00000+0 0  9998
2 39216   2.2112  80.9814 0001847 134.7730 283.0885  1.00271119 48217
FENGYUN 3C              
1 39260U 13052A   26281.19138894  .00000041  00000+0  42157-4 0  9990
2 39260  98.5153 249.9588 0015694  60.2781 299.9953 14.15775700674557
METEOR-M 2              
1 40069U 14037A   26281.19091837  .00000477  00000+0  23733-3 0  9999
2 40069  98.5272 253.0090 0006948  70.8359 289.3570 14.21489612635378
HIMAWARI-8              
1 40267U 14060A   26280.98184756 -.00000291  00000+0  00000+0 0  9997
2 40267   0.0489  43.8006 0001327 192.4501 274.5142  1.00272388 43898
FENGYUN 2G              
1 40367U 14090A   26280.97370086 -.00000310  00000+0  00000+0 0  9995
2 40367   5.9186  71.3953 0004465 188.1580 207.0921  1.00263039 43135
METEOSAT-11 (MSG-4)     
1 40732U 15034A   26280.67086525  .00000053  00000+0  00000+0 0  9992
2 40732   3.4780  70.2824 0000462 107.3282  89.8651  1.00280226  8341
ELEKTRO-L 2             
1 41105U 15074A   26280.66609856 -.00000128  00000+0  00000+0 0  9992
2 41105   6.9715  69.0948 0002618 196.3182 336.1711  1.00270572 39631
SENTINEL-3A             
1 41335U 16011A   26281.19576817  .00000049  00000+0  38258-4 0  9990
2 41335  98.6252 346.9446 0001289 103.4631 256.6693 14.26738866554174
INSAT-3DR               
1 41752U 16054A   26281.11120970 -.00000092  00000+0  00000+0 0  9995
2 41752   0.0944  86.2620 0012508 178.9438 225.5873  1.00271277 36950
HIMAWARI-9              
1 41836U 16064A   26280.19786900 -.00000292  00000+0  00000+0 0  9999
2 41836   0.0217 309.3604 0001025 281.7521 356.7477  1.00272002 36331
GOES 16                 
1 41866U 16071A   26281.07584955 -.00000105  00000+0  00000+0 0  9997
2 41866   0.6156  83.9650 0002178 149.2161  66.1514  1.00271265 36239
FENGYUN 4A              
1 41882U 16077A   26280.98933709 -.00000371  00000+0  00000+0 0  9990
2 41882   2.6026  78.8401 0008410 168.1388 248.9743  1.00273522 36061
CYGFM05                 
1 41884U 16078A   26281.19250583  .00022157  00000+0  24849-3 0  9995
2 41884  34.9551 229.5202 0005227 176.7891 183.2869 15.61647025546404
CYGFM04                 
1 41885U 16078B   26281.13571786  .00034008  00000+0  29149-3 0  9997
2 41885  34.9303 190.9680 0005821 236.8451 123.1718 15.68308366546709
CYGFM02                 
1 41886U 16078C   26281.11212074  .00049317  00000+0  33799-3 0  9993
2 41886  34.9384 181.3602 0006813 247.0440 112.9571 15.73553758546910
CYGFM01                 
1 41887U 16078D   26281.18903492  .00023093  00000+0  25015-3 0  9997
2 41887  34.9380 229.5732 0004806 174.3099 185.7682 15.62533454546367
CYGFM08                 
1 41888U 16078E   26281.11395132  .00032499  00000+0  30355-3 0  9990
2 41888  34.9414 206.1621 0006654 209.3286 150.7068 15.66199976546657
CYGFM07                 
1 41890U 16078G   26281.12869067  .00029811  00000+0  27702-3 0  9993
2 41890  34.9428 194.2882 0006049 230.3596 129.6597 15.66344802546682
CYGFM03                 
1 41891U 16078H   26281.10089786  .00031728  00000+0  29507-3 0  9999
2 41891  34.9385 196.3895 0005057 221.4127 138.6217 15.66322673546659
FENGYUN 3D              
1 43010U 17072A   26281.18813255  .00000270  00000+0  14929-3 0  9993
2 43010  99.0282 257.7319 0002535  83.8008 276.3456 14.19760199461029
NOAA 20 (JPSS-1)        
1 43013U 17073A   26281.13124539  .00000025  00000+0  33022-4 0  9996
2 43013  98.7855 219.6220 0000590  31.2021 328.9190 14.19529536460490
GOES 17                 
1 43226U 18022A   26281.07888291 -.00000197  00000+0  00000+0 0  9998
2 43226   1.2226  83.7860 0001077 155.9489  75.9047  1.00272311 31553
SENTINEL-3B             
1 43437U 18039A   26281.16889757  .00000049  00000+0  38327-4 0  9991
2 43437  98.6247 347.0671 0000904  68.0856 292.0420 14.26736857440234
FENGYUN 2H              
1 43491U 18050A   26281.11224971 -.00000140  00000+0  00000+0 0  9995
2 43491   3.3157  77.6396 0003130 157.6853 261.1067  1.00269596 30578
METOP-C                 
1 43689U 18087A   26280.89966188  .00000047  00000+0  41408-4 0  9998
2 43689  98.7305 338.6061 0000449 130.3752 229.7464 14.21476653410849
GEO-KOMPSAT-2A          
1 43823U 18100A   26279.93460766  .00000000  00000+0  00000+0 0  9995
2 43823   0.0109  98.6748 0001241  36.8966 344.7336  1.00267465 28753
METEOR-M2 2             
1 44387U 19038A   26280.91850350 -.00000229  00000+0 -79304-4 0  9997
2 44387  98.9273 269.9341 0002270  67.1740 292.9678 14.24389876377345
ARKTIKA-M 1             
1 47719U 21016A   26280.13916984 -.00000111  00000+0  00000+0 0  9999
2 47719  63.2886  41.1607 7326214 270.4477  14.3217  2.00636870 41036
FENGYUN 3E              
1 49008U 21062A   26280.94845712 -.00000385  00000+0 -16077-3 0  9991
2 49008  98.7560 283.1305 0002603 107.6815 252.4646 14.19911017272586
GOES 18                 
1 51850U 22021A   26280.64183182  .00000080  00000+0  00000+0 0  9993
2 51850   0.0072 334.0083 0000571 294.6977 201.6565  1.00272015  7727
NOAA 21 (JPSS-2)        
1 54234U 22150A   26280.88027987  .00000016  00000+0  28437-4 0  9999
2 54234  98.7136 217.8013 0000976 199.1236 160.9904 14.19552211202531
METEOSAT-12 (MTG-I1)    
1 54743U 22170C   26280.66887191 -.00000022  00000+0  00000+0 0  9992
2 54743   0.7584  22.9186 0003111  93.7870 140.0916  1.00275392 14103
TIANMU-1 03             
1 55973U 23039A   26280.92406823  .00013179  00000+0  23516-3 0  9998
2 55973  97.5258  99.6077 0003626  66.1501 294.0130 15.50197910198286
TIANMU-1 04             
1 55974U 23039B   26280.93071703  .00014369  00000+0  24988-3 0  9991
2 55974  97.5181  98.7839 0004350  46.0396 314.1213 15.50903750198308
TIANMU-1 05             
1 55975U 23039C   26280.97539451  .00013761  00000+0  24622-3 0  9995
2 55975  97.5244  99.2334 0003304  73.7346 286.4268 15.50109356198272
TIANMU-1 06             
1 55976U 23039D   26280.94238848  .00013455  00000+0  23522-3 0  9997
2 55976  97.5252  99.9536 0003005  69.4864 290.6710 15.50776391198300
FENGYUN 3G              
1 56232U 23055A   26272.26318046  .00016751  00000+0  25793-3 0  9990
2 56232  49.9916 169.2876 0010954  97.6393 262.5820 15.54217677196188
METEOR-M2 3             
1 57166U 23091A   26280.93938422 -.00000010  00000+0  14590-4 0  9992
2 57166  98.5960 333.5375 0003740 186.0285 174.0850 14.24053618170565
TIANMU-1 07             
1 57399U 23101A   26280.95556902  .00004507  00000+0  15346-3 0  9996
2 57399  97.2479 329.0450 0004226  96.0405 264.1318 15.30895916178899
TIANMU-1 08             
1 57400U 23101B   26280.92217001  .00004699  00000+0  15988-3 0  9994
2 57400  97.2468 328.7663 0005501  85.6282 274.5588 15.30892858178881
TIANMU-1 09             
1 57401U 23101C   26280.97006226  .00004599  00000+0  15659-3 0  9999
2 57401  97.2427 328.1683 0005065  97.6563 262.5254 15.30881856178897
TIANMU-1 10             
1 57402U 23101D   26280.93682843  .00004572  00000+0  15541-3 0  9992
2 57402  97.2505 329.3075 0006259  95.1557 265.0399 15.30936270178883
FENGYUN 3F              
1 57490U 23111A   26280.92946234  .00000015  00000+0  27511-4 0  9995
2 57490  98.6731 348.7735 0001489 102.9337 257.2006 14.19953636164869
TIANMU-1 11             
1 58645U 23205A   26280.99081196  .00004148  00000+0  15473-3 0  9990
2 58645  97.3415 300.8361 0007605 336.0440  24.0445 15.27945923154745
TIANMU-1 12             
1 58646U 23205B   26280.98119538  .00004144  00000+0  15613-3 0  9994
2 58646  97.3405 300.5206 0006058 321.1429  38.9374 15.27621082154723
TIANMU-1 13             
1 58647U 23205C   26280.94763066  .00004041  00000+0  15242-3 0  9996
2 58647  97.3432 300.8013 0004396 298.4694  61.6102 15.27610517154718
TIANMU-1 14             
1 58648U 23205D   26280.99591253  .00004040  00000+0  15224-3 0  9998
2 58648  97.3371 299.9425 0005228 304.2402  55.8342 15.27633121154722
TIANMU-1 19             
1 58660U 23208A   26280.93165193  .00007049  00000+0  22299-3 0  9991
2 58660  97.4597  37.9946 0003378 272.7862  87.2993 15.33088671154595
TIANMU-1 20             
1 58661U 23208B   26280.94711014  .00007136  00000+0  21735-3 0  9993
2 58661  97.4543  38.7655 0005448 280.3849  79.6780 15.34284173154701
TIANMU-1 21             
1 58662U 23208C   26280.95035979  .00008581  00000+0  24012-3 0  9990
2 58662  97.4609  41.9696 0005455 271.5027  88.5593 15.36892178154875
TIANMU-1 22             
1 58663U 23208D   26280.95613852  .00006439  00000+0  20806-3 0  9990
2 58663  97.4594  37.8498 0002295 313.4293  46.6757 15.32447285154590
TIANMU-1 15             
1 58700U 24004A   26280.92753943  .00004226  00000+0  15925-3 0  9998
2 58700  97.4656 107.1846 0005857 305.9867  54.0829 15.27625237152982
TIANMU-1 16             
1 58701U 24004B   26280.97803858  .00004143  00000+0  15611-3 0  9995
2 58701  97.4607 106.4052 0004551 323.5573  36.5356 15.27641772152993
TIANMU-1 17             
1 58702U 24004C   26280.96243671  .00004307  00000+0  16176-3 0  9995
2 58702  97.4632 106.9169 0004541 334.2736  25.8277 15.27728145152987
TIANMU-1 18             
1 58703U 24004D   26280.94479903  .00004051  00000+0  15332-3 0  9992
2 58703  97.4649 107.1663 0004108 312.6806  47.4086 15.27511567152981
INSAT-3DS               
1 58990U 24033A   26280.73835074 -.00000172  00000+0  00000+0 0  9997
2 58990   0.0384  93.8818 0001349 106.0145 164.3707  1.00273077 48196
METEOR-M2 4             
1 59051U 24039A   26280.94122032  .00000010  00000+0  24357-4 0  9994
2 59051  98.7170 238.8940 0006577 195.5470 164.5507 14.22439391135290
GOES 19                 
1 60133U 24119A   26280.41786317 -.00000265  00000+0  00000+0 0  9997
2 60133   0.0419  40.3378 0000711 231.9383 179.0514  1.00271589  8088
MTG-S1                  
1 64723U 25143A   26279.24337438 -.00000023  00000+0  00000+0 0  9991
2 64723   0.6120 345.3468 0004185 257.6015 219.4469  1.00275089  4539
METOP-SGA1              
1 65159U 25172A   26280.72275062  .00000015  00000+0  26961-4 0  9995
2 65159  98.7417 338.5286 0000874 103.6807 256.4468 14.21469242 59771
FENGYUN 3H              
1 65815U 25219A   26280.85683939  .00000023  00000+0  31169-4 0  9991
2 65815  98.6854 219.4681 0001560  85.3362 274.7992 14.19935789 53371
